NORAD_CAT_ID,OBJECT_NAME,OBJECT_TYPE,EPOCH,MEAN_MOTION,ECCENTRICITY,INCLINATION,RA_OF_ASC_NODE,ARG_OF_PERICENTER,MEAN_ANOMALY,BSTAR,MEAN_MOTION_DOT,MEAN_MOTION_DDOT,TLE_LINE0,TLE_LINE1,TLE_LINE2,SEMIMAJOR_AXIS,PERIOD,APOGEE,PERIGEE,DECAYED
55931.0,STARLINK-5897,PAYLOAD,2024-07-17 20:46:02,14.98325701,0.0002944,70.0014,16.6511,268.7847,91.2975,8.2297e-06,5e-08,0.0,0 STARLINK-5897,1 55931U 23037T   24199.86530412  .00000005  00000-0  82297-5 0  9990,2 55931  70.0014  16.6511 0002944 268.7847  91.2975 14.98325701 73641,6950.206,96.107,574.117,570.025,0.0
55931.0,STARLINK-5897,PAYLOAD,2024-07-18 04:46:42,14.98329523,0.0002762,70.0015,15.8092,266.0559,94.0284,-1.7618e-05,-3.03e-06,0.0,0 STARLINK-5897,1 55931U 23037T   24200.19910287 -.00000303  00000-0 -17618-4 0  9998,2 55931  70.0015  15.8092 0002762 266.0559  94.0284 14.98329523 74030,6950.194,96.107,573.979,570.14,0.0
55931.0,STARLINK-5897,PAYLOAD,2024-07-18 14:23:30,14.9833496,0.0002711,70.0014,14.7991,265.0996,94.9853,3.0351e-05,2.69e-06,0.0,0 STARLINK-5897,1 55931U 23037T   24200.59965766  .00000269  00000-0  30351-4 0  9992,2 55931  70.0014  14.7991 0002711 265.0996  94.9853 14.98334960 73753,6950.178,96.107,573.927,570.158,0.0
55931.0,STARLINK-5897,PAYLOAD,2024-07-18 20:48:02,14.9833791,0.0002689,70.0015,14.1259,264.8297,95.2556,6.3593e-05,6.66e-06,0.0,0 STARLINK-5897,1 55931U 23037T   24200.86669411  .00000666  00000-0  63593-4 0  9995,2 55931  70.0015  14.1259 0002689 264.8297  95.2556 14.98337910 74135,6950.168,96.106,573.902,570.165,0.0
55931.0,STARLINK-5897,PAYLOAD,2024-07-19 12:49:23,14.98326036,0.0002744,70.0013,12.4433,262.2067,97.8781,3.0166e-05,2.67e-06,0.0,0 STARLINK-5897,1 55931U 23037T   24201.53430115  .00000267  00000-0  30166-4 0  9994,2 55931  70.0013  12.4433 0002744 262.2067  97.8781 14.98326036 74233,6950.205,96.107,573.977,570.163,0.0
55931.0,STARLINK-5897,PAYLOAD,2024-07-19 14:25:31,14.98325201,0.0002783,70.0013,12.2749,261.9989,98.0854,3.848e-05,3.66e-06,0.0,0 STARLINK-5897,1 55931U 23037T   24201.60106147  .00000366  00000-0  38480-4 0  9994,2 55931  70.0013  12.2749 0002783 261.9989  98.0854 14.98325201 73903,6950.208,96.107,574.007,570.138,0.0
55931.0,STARLINK-5897,PAYLOAD,2024-07-19 20:50:04,14.98324586,0.0002762,70.0013,11.6009,263.4598,96.6247,1.8259e-05,1.25e-06,0.0,0 STARLINK-5897,1 55931U 23037T   24201.86810344  .00000125  00000-0  18259-4 0  9998,2 55931  70.0013  11.6009 0002762 263.4598  96.6247 14.98324586 73944,6950.21,96.107,573.994,570.155,0.0
55931.0,STARLINK-5897,PAYLOAD,2024-07-20 12:51:24,14.98327077,0.0003071,70.0006,9.9166,268.1484,91.9323,-2.9665e-05,-4.47e-06,0.0,0 STARLINK-5897,1 55931U 23037T   24202.53570342 -.00000447  00000-0 -29665-4 0  9996,2 55931  70.0006   9.9166 0003071 268.1484  91.9323 14.98327077 74380,6950.202,96.107,574.201,569.933,0.0
55931.0,STARLINK-5897,PAYLOAD,2024-07-20 14:27:32,14.98328754,0.000306,70.0007,9.7482,268.0912,91.9896,-1.1142e-05,-2.26e-06,0.0,0 STARLINK-5897,1 55931U 23037T   24202.60246193 -.00000226  00000-0 -11142-4 0  9994,2 55931  70.0007   9.7482 0003060 268.0912  91.9896 14.98328754 74055,6950.197,96.107,574.189,569.935,0.0
55931.0,STARLINK-5897,PAYLOAD,2024-07-20 20:52:04,14.98337018,0.0003022,70.0008,9.0756,265.549,94.5324,1.6286e-05,1.01e-06,0.0,0 STARLINK-5897,1 55931U 23037T   24202.86949544  .00000101  00000-0  16286-4 0  9996,2 55931  70.0008   9.0756 0003022 265.5490  94.5324 14.98337018 74434,6950.171,96.107,574.137,569.936,0.0
55931.0,STARLINK-5897,PAYLOAD,2024-07-21 12:53:25,14.98326925,0.0002914,70.001,7.3909,265.0318,95.0509,6.8274e-05,7.22e-06,0.0,0 STARLINK-5897,1 55931U 23037T   24203.53709923  .00000722  00000-0  68274-4 0  9999,2 55931  70.0010   7.3909 0002914 265.0318  95.0509 14.98326925 74538,6950.202,96.107,574.093,570.042,0.0
55931.0,STARLINK-5897,PAYLOAD,2024-07-21 14:29:33,14.98326909,0.0002901,70.0011,7.2226,264.885,95.1978,6.8845e-05,7.28e-06,0.0,0 STARLINK-5897,1 55931U 23037T   24203.60385933  .00000728  00000-0  68845-4 0  9998,2 55931  70.0011   7.2226 0002901 264.8850  95.1978 14.98326909 74201,6950.202,96.107,574.084,570.051,0.0
55931.0,STARLINK-5897,PAYLOAD,2024-07-21 20:54:05,14.98329452,0.0002888,70.0015,6.5505,266.1239,93.959,8.3258e-05,9.01e-06,0.0,0 STARLINK-5897,1 55931U 23037T   24203.87089785  .00000901  00000-0  83258-4 0  9991,2 55931  70.0015   6.5505 0002888 266.1239  93.9590 14.98329452 74243,6950.195,96.107,574.067,570.052,0.0
55931.0,STARLINK-5897,PAYLOAD,2024-07-22 20:56:06,14.98332096,0.0002957,70.0015,4.0253,272.5093,87.5728,1.2782e-05,6e-07,0.0,0 STARLINK-5897,1 55931U 23037T   24204.87229730  .00000060  00000-0  12782-4 0  9998,2 55931  70.0015   4.0253 0002957 272.5093  87.5728 14.98332096 74398,6950.186,96.107,574.107,569.996,0.0
55931.0,STARLINK-5897,PAYLOAD,2024-07-23 09:45:11,14.98326856,0.0002905,70.0017,2.6788,273.5788,86.5039,-2.111e-05,-3.45e-06,0.0,0 STARLINK-5897,1 55931U 23037T   24205.40638163 -.00000345  00000-0 -21110-4 0  9995,2 55931  70.0017   2.6788 0002905 273.5788  86.5039 14.98326856 74472,6950.203,96.107,574.087,570.049,0.0
55931.0,STARLINK-5897,PAYLOAD,2024-07-23 20:58:07,14.98327608,0.0002736,70.0021,1.501,270.547,89.5375,-1.295e-06,-1.08e-06,0.0,0 STARLINK-5897,1 55931U 23037T   24205.87370120 -.00000108  00000-0 -12950-5 0  9992,2 55931  70.0021   1.5010 0002736 270.5470  89.5375 14.98327608 74887,6950.2,96.107,573.967,570.164,0.0
55931.0,STARLINK-5897,PAYLOAD,2024-07-24 21:00:08,14.98331674,0.000294,70.0015,358.9761,267.9024,92.1798,4.2087e-05,4.09e-06,0.0,0 STARLINK-5897,1 55931U 23037T   24206.87509703  .00000409  00000-0  42087-4 0  9999,2 55931  70.0015 358.9761 0002940 267.9024  92.1798 14.98331674 75039,6950.188,96.107,574.096,570.009,0.0
55931.0,STARLINK-5897,PAYLOAD,2024-07-26 09:51:13,14.98333235,0.0002964,70.0018,355.1047,272.8235,87.2584,3.3747e-05,3.1e-06,0.0,0 STARLINK-5897,1 55931U 23037T   24208.41057465  .00000310  00000-0  33747-4 0  9998,2 55931  70.0018 355.1047 0002964 272.8235  87.2584 14.98333235 75261,6950.183,96.107,574.108,569.988,0.0
55931.0,STARLINK-5897,PAYLOAD,2024-07-26 21:04:08,14.98347248,0.000329,70.0004,353.9237,269.7395,90.3387,0.00021621,2.489e-05,0.0,0 STARLINK-5897,1 55931U 23037T   24208.87787825  .00002489  00000-0  21621-3 0  9994,2 55931  70.0004 353.9237 0003290 269.7395  90.3387 14.98347248 74992,6950.14,96.106,574.291,569.718,0.0
55931.0,STARLINK-5897,PAYLOAD,2024-07-27 03:28:43,14.98320502,0.0002941,69.9997,353.2507,265.01,95.0724,-9.8024e-05,-1.262e-05,0.0,0 STARLINK-5897,1 55931U 23037T   24209.14494363 -.00001262  00000-0 -98024-4 0  9999,2 55931  69.9997 353.2507 0002941 265.0100  95.0724 14.98320502 75372,6950.222,96.108,574.131,570.043,0.0
55931.0,STARLINK-5897,PAYLOAD,2024-07-27 19:30:03,14.98326394,0.0003034,70.0012,351.5684,267.8755,92.2057,-2.517e-05,-3.93e-06,0.0,0 STARLINK-5897,1 55931U 23037T   24209.81253993 -.00000393  00000-0 -25170-4 0  9991,2 55931  70.0012 351.5684 0003034 267.8755  92.2057 14.98326394 75137,6950.204,96.107,574.178,569.96,0.0
55931.0,STARLINK-5897,PAYLOAD,2024-07-28 11:31:23,14.98333087,0.0003045,70.0011,349.8851,267.009,93.072,-1.9163e-05,-3.22e-06,0.0,0 STARLINK-5897,1 55931U 23037T   24210.48013536 -.00000322  00000-0 -19163-4 0  9990,2 55931  70.0011 349.8851 0003045 267.0090  93.0720 14.98333087 75579,6950.183,96.107,574.165,569.932,0.0
55931.0,STARLINK-5897,PAYLOAD,2024-07-28 19:32:03,14.98339458,0.0003056,70.0015,349.0444,269.3675,90.7134,6.2573e-06,-1.8e-07,0.0,0 STARLINK-5897,1 55931U 23037T   24210.81392979 -.00000018  00000-0  62573-5 0  9993,2 55931  70.0015 349.0444 0003056 269.3675  90.7134 14.98339458 75288,6950.164,96.106,574.153,569.905,0.0
55931.0,STARLINK-5897,PAYLOAD,2024-07-29 09:57:16,14.9832636,0.0002976,70.0019,347.5298,268.1754,91.9064,7.5417e-05,8.07e-06,0.0,0 STARLINK-5897,1 55931U 23037T   24211.41477563  .00000807  00000-0  75417-4 0  9998,2 55931  70.0019 347.5298 0002976 268.1754  91.9064 14.98326360 75370,6950.204,96.107,574.138,570.001,0.0
55931.0,STARLINK-5897,PAYLOAD,2024-07-30 01:58:37,14.98331708,0.0002818,70.0026,345.8464,272.2981,87.7855,1.6463e-05,1.04e-06,0.0,0 STARLINK-5897,1 55931U 23037T   24212.08237468  .00000104  00000-0  16463-4 0  9996,2 55931  70.0026 345.8464 0002818 272.2981  87.7855 14.98331708 75819,6950.188,96.107,574.011,570.094,0.0
55931.0,STARLINK-5897,PAYLOAD,2024-07-30 14:47:41,14.98332584,0.0002782,70.0027,344.5005,269.9401,90.144,-8.1561e-06,-1.9e-06,0.0,0 STARLINK-5897,1 55931U 23037T   24212.61645415 -.00000190  00000-0 -81561-5 0  9999,2 55931  70.0027 344.5005 0002782 269.9401  90.1440 14.98332584 75559,6950.185,96.107,573.983,570.116,0.0
55931.0,STARLINK-5897,PAYLOAD,2024-07-30 19:36:05,14.98334173,0.0002733,70.0027,343.9952,271.0893,88.9953,1.3981e-05,7.4e-07,0.0,0 STARLINK-5897,1 55931U 23037T   24212.81673220  .00000074  00000-0  13981-4 0  9995,2 55931  70.0027 343.9952 0002733 271.0893  88.9953 14.98334173 75581,6950.18,96.107,573.944,570.146,0.0
55931.0,STARLINK-5897,PAYLOAD,2024-07-31 02:00:38,14.98329188,0.0002683,70.0028,343.3216,270.7549,89.3302,-4.697e-05,-6.53e-06,0.0,0 STARLINK-5897,1 55931U 23037T   24213.08377669 -.00000653  00000-0 -46970-4 0  9992,2 55931  70.0028 343.3216 0002683 270.7549  89.3302 14.98329188 75962,6950.195,96.107,573.925,570.196,0.0
55931.0,STARLINK-5897,PAYLOAD,2024-07-31 14:49:43,14.98324995,0.0002827,70.0021,341.9767,270.3011,89.7824,-4.2727e-05,-6.03e-06,0.0,0 STARLINK-5897,1 55931U 23037T   24213.61785980 -.00000603  00000-0 -42727-4 0  9991,2 55931  70.0021 341.9767 0002827 270.3011  89.7824 14.98324995 75706,6950.208,96.107,574.038,570.109,0.0
55931.0,STARLINK-5897,PAYLOAD,2024-07-31 18:01:59,14.98325556,0.0002825,70.0021,341.6402,269.9474,90.1362,-3.4167e-05,-5.01e-06,0.0,0 STARLINK-5897,1 55931U 23037T   24213.75137960 -.00000501  00000-0 -34167-4 0  9991,2 55931  70.0021 341.6402 0002825 269.9474  90.1362 14.98325556 75723,6950.207,96.107,574.035,570.108,0.0
